TIANMU-1 08             
1 57400U 23101B   26066.00237819  .00000346  00000+0  14775-4 0  9993
2 57400  97.2717 118.7901 0006380 134.2174 225.9592 15.29204229146020
STARLINK-31744          
1 59494U 24071L   26067.22915303  .00001769  00000+0  73732-4 0  9999
2 59494  43.0052 355.6563 0001065 283.7136  76.3597 15.27607308107893
